H1 CPF 01  gfz 2021 07 11 12  6922 terrasarx 
H2 0702601  6201 31698    2021 07 11 12 59 42 2021 07 16 00 00 42   120 1 1  0 0 0
H9
10 0 59406  79902.000000  0   -3183721.321   6108920.576     95694.615
10 0 59406  80022.000000  0   -3003890.250   6148441.582   -807704.447
10 0 59406  80142.000000  0   -2771874.527   6076968.754  -1696894.908
10 0 59406  80262.000000  0   -2493702.248   5894971.396  -2556258.257
10 0 59406  80382.000000  0   -2176179.680   5604970.920  -3370731.033
10 0 59406  80502.000000  0   -1826731.421   5211499.534  -4126070.853
10 0 59406  80622.000000  0   -1453231.542   4721018.370  -4809104.804
10 0 59406  80742.000000  0   -1063830.607   4141800.399  -5407953.368
10 0 59406  80862.000000  0    -666781.803   3483781.937  -5912229.789
10 0 59406  80982.000000  0    -270269.278   2758383.766  -6313211.383
10 0 59406  81102.000000  0     117756.901   1978306.641  -6603978.595
10 0 59406  81222.000000  0     489735.256   1157307.921  -6779523.175
10 0 59406  81342.000000  0     838635.885    309960.689  -6836826.210
10 0 59406  81462.000000  0    1158089.843   -548600.697  -6774904.208
10 0 59406  81582.000000  0    1442501.983  -1402945.414  -6594822.841
10 0 59406  81702.000000  0    1687146.377  -2237615.742  -6299679.853
10 0 59406  81822.000000  0    1888244.247  -3037399.683  -5894558.512
10 0 59406  81942.000000  0    2043022.490  -3787604.965  -5386450.860
10 0 59406  82062.000000  0    2149751.897  -4474330.371  -4784147.302
10 0 59406  82182.000000  0    2207763.846  -5084724.977  -4098094.320
10 0 59406  82302.000000  0    2217445.633  -5607234.055  -3340224.224
10 0 59406  82422.000000  0    2180213.819  -6031827.162  -2523755.850
10 0 59406  82542.000000  0    2098465.703  -6350202.219  -1662968.766
10 0 59406  82662.000000  0    1975508.576  -6555958.806   -772953.959
10 0 59406  82782.000000  0    1815471.729  -6644737.242    130654.596
10 0 59406  82902.000000  0    1623198.502  -6614315.366   1031961.462
10 0 59406  83022.000000  0    1404124.366  -6464666.433   1915096.675
10 0 59406  83142.000000  0    1164142.116  -6197970.234   2764506.397
10 0 59406  83262.000000  0     909458.280  -5818578.645   3565234.432
10 0 59406  83382.000000  0     646444.433  -5332938.933   4303191.454
10 0 59406  83502.000000  0     381487.820  -4749476.251   4965405.958
10 0 59406  83622.000000  0     120843.861  -4078437.996   5540253.173
10 0 59406  83742.000000  0    -129504.291  -3331703.611   6017657.184
10 0 59406  83862.000000  0    -363976.786  -2522564.439   6389262.543
10 0 59406  83982.000000  0    -577516.630  -1665481.187   6648572.774
10 0 59406  84102.000000  0    -765694.827   -775823.230   6791058.105
10 0 59406  84222.000000  0    -924799.765    130408.496   6814230.999
10 0 59406  84342.000000  0   -1051909.507   1036869.826   6717686.988
10 0 59406  84462.000000  0   -1144944.905   1927167.659   6503110.962
10 0 59406  84582.000000  0   -1202703.362   2785155.718   6174249.591
10 0 59406  84702.000000  0   -1224873.314   3595227.785   5736850.083
10 0 59406  84822.000000  0   -1212028.572   4342603.877   5198565.052
10 0 59406  84942.000000  0   -1165602.384   5013604.521   4568825.285
10 0 59406  85062.000000  0   -1087842.708   5595909.091   3858679.480
10 0 59406  85182.000000  0    -981747.977   6078789.735   3080603.494
10 0 59406  85302.000000  0    -850987.624   6453320.031   2248284.083
10 0 59406  85422.000000  0    -699804.878   6712551.029   1376374.009
10 0 59406  85542.000000  0    -532905.529   6851647.039    480228.627
10 0 59406  85662.000000  0    -355336.150   6867980.981   -424371.282
10 0 59406  85782.000000  0    -172354.535   6761186.487  -1321506.689
10 0 59406  85902.000000  0      10704.052   6533161.886  -2195410.888
10 0 59406  86022.000000  0     188560.331   6188027.628  -3030753.041
10 0 59406  86142.000000  0     356121.727   5732042.119  -3812910.691
10 0 59406  86262.000000  0     508607.837   5173476.673  -4528226.818
10 0 59406  86382.000000  0     641667.261   4522452.931  -5164245.736
10 0 59407    102.000000  0     751483.070   3790747.882  -5709923.688
10 0 59407    222.000000  0     834864.201   2991571.297  -6155811.826
10 0 59407    342.000000  0     889321.203   2139320.447  -6494208.931
10 0 59407    462.000000  0     913125.661   1249318.562  -6719282.342
10 0 59407    582.000000  0     905351.645    337541.285  -6827158.858
10 0 59407    702.000000  0     865899.448   -579665.838  -6815984.419
10 0 59407    822.000000  0     795500.565  -1485874.555  -6685951.423
10 0 59407    942.000000  0     695704.433  -2364859.743  -6439294.328
10 0 59407   1062.000000  0     568847.549  -3200882.096  -6080257.304
10 0 59407   1182.000000  0     418003.787  -3978967.593  -5615030.289
10 0 59407   1302.000000  0     246918.021  -4685174.901  -5051651.364
10 0 59407   1422.000000  0      59923.828  -5306847.912  -4399879.630
10 0 59407   1542.000000  0    -138154.362  -5832849.949  -3671037.298
10 0 59407   1662.000000  0    -342112.276  -6253773.449  -2877821.515
10 0 59407   1782.000000  0    -546487.935  -6562120.222  -2034089.551
10 0 59407   1902.000000  0    -745692.345  -6752448.815  -1154618.937
10 0 59407   2022.000000  0    -934145.439  -6821482.530   -254846.163
10 0 59407   2142.000000  0   -1106413.994  -6768174.889    649409.525
10 0 59407   2262.000000  0   -1257348.323  -6593731.261   1542231.410
10 0 59407   2382.000000  0   -1382214.114  -6301585.356   2407894.609
10 0 59407   2502.000000  0   -1476815.495  -5897329.979   3231152.339
10 0 59407   2622.000000  0   -1537606.086  -5388604.280   3997512.399
10 0 59407   2742.000000  0   -1561784.608  -4784940.173   4693496.651
10 0 59407   2862.000000  0   -1547374.347  -4097574.922   5306878.941
10 0 59407   2982.000000  0   -1493284.541  -3339232.838   5826900.066
10 0 59407   3102.000000  0   -1399351.134  -2523879.294   6244452.778
10 0 59407   3222.000000  0   -1266356.207  -1666456.979   6552234.144
10 0 59407   3342.000000  0   -1096027.398   -782609.067   6744867.356
10 0 59407   3462.000000  0    -891017.695    111608.587   6818990.249
10 0 59407   3582.000000  0    -654864.810   1000018.783   6773309.963
10 0 59407   3702.000000  0    -391929.866   1866615.159   6608624.641
10 0 59407   3822.000000  0    -107316.887   2695850.244   6327810.213
10 0 59407   3942.000000  0     193225.286   3472914.292   5935773.095
10 0 59407   4062.000000  0     503416.600   4184001.849   5439369.731
10 0 59407   4182.000000  0     816573.965   4816561.146   4847292.537
10 0 59407   4302.000000  0    1125752.085   5359522.497   4169923.360
10 0 59407   4422.000000  0    1423892.117   5803499.349   3419155.462
10 0 59407   4542.000000  0    1703978.453   6140961.302   2608190.219
10 0 59407   4662.000000  0    1959199.373   6366372.928   1751301.133
10 0 59407   4782.000000  0    2183103.770   6476291.344    863577.709
10 0 59407   4902.000000  0    2369754.056   6469421.378    -39347.897
10 0 59407   5022.000000  0    2513868.953   6346627.777   -941583.640
10 0 59407   5142.000000  0    2610953.879   6110904.892  -1827265.304
10 0 59407   5262.000000  0    2657415.682   5767303.902  -2680842.774
10 0 59407   5382.000000  0    2650658.500   5322819.746  -3487359.301
10 0 59407   5502.000000  0    2589158.190   4786239.541  -4232717.185
10 0 59407   5622.000000  0    2472513.311   4167958.300  -4903922.999
10 0 59407   5742.000000  0    2301472.497   3479767.758  -5489308.805
10 0 59407   5862.000000  0    2077938.684   2734624.054  -5978726.862
10 0 59407   5982.000000  0    1804949.768   1946398.154  -6363715.581
10 0 59407   6102.000000  0    1486636.783   1129615.546  -6637633.598
10 0 59407   6222.000000  0    1128161.648    299190.488  -6795763.795
10 0 59407   6342.000000  0     735633.191   -529842.271  -6835386.664
10 0 59407   6462.000000  0     316003.786  -1342594.423  -6755820.888
10 0 59407   6582.000000  0    -123050.698  -2124583.910  -6558432.437
10 0 59407   6702.000000  0    -573267.041  -2861985.961  -6246615.188
10 0 59407   6822.000000  0   -1025946.347  -3541874.706  -5825739.468
10 0 59407   6942.000000  0   -1472117.194  -4152448.117  -5303068.399
10 0 59407   7062.000000  0   -1902709.179  -4683235.326  -4687644.727
10 0 59407   7182.000000  0   -2308734.461  -5125282.826  -3990145.782
10 0 59407   7302.000000  0   -2681473.471  -5471313.958  -3222707.620
10 0 59407   7422.000000  0   -3012660.338  -5715858.406  -2398721.221
10 0 59407   7542.000000  0   -3294664.565  -5855349.150  -1532603.226
10 0 59407   7662.000000  0   -3520664.714  -5888183.674   -639543.636
10 0 59407   7782.000000  0   -3684808.516  -5814745.936    264765.133
10 0 59407   7902.000000  0   -3782355.037  -5637388.199   1164411.008
10 0 59407   8022.000000  0   -3809795.599  -5360372.970   2043551.286
10 0 59407   8142.000000  0   -3764949.521  -4989775.395   2886700.995
10 0 59407   8262.000000  0   -3647032.557  -4533349.869   3679013.242
10 0 59407   8382.000000  0   -3456696.517  -4000364.508   4406546.728
10 0 59407   8502.000000  0   -3196039.003  -3401406.758   5056514.418
10 0 59407   8622.000000  0   -2868583.638  -2748166.112   5617507.730
10 0 59407   8742.000000  0   -2479231.278  -2053200.265   6079693.607
10 0 59407   8862.000000  0   -2034184.100  -1329689.848   6434982.545
10 0 59407   8982.000000  0   -1540843.263   -591184.545   6677166.224
10 0 59407   9102.000000  0   -1007681.869    148653.559   6802017.991
10 0 59407   9222.000000  0    -444099.305    876301.155   6807360.651
10 0 59407   9342.000000  0     139744.186   1578620.212   6693102.899
10 0 59407   9462.000000  0     733110.425   2243095.067   6461240.953
10 0 59407   9582.000000  0    1324880.369   2858055.292   6115825.110
10 0 59407   9702.000000  0    1903761.410   3412881.152   5662893.567
10 0 59407   9822.000000  0    2458502.454   3898190.378   5110373.374
10 0 59407   9942.000000  0    2978114.396   4306002.087   4467947.714
99
